start=new Date('2022-02-24T00:00:00.000Z').valueOf();
sats=[{"MEAN_ANOMALY":"116.3684","CENTER_NAME":"EARTH","REF_FRAME":"TEME","OBJECT_NAME":"STARLINK-3269","NORAD_CAT_ID":"50194","DECAY_DATE":null,"EPHEMERIS_TYPE":"0","COUNTRY_CODE":"US","OBJECT_TYPE":"PAYLOAD","TIME_SYSTEM":"UTC","OBJECT_ID":"2021-125AQ","ECCENTRICITY":"0.00031940","ELEMENT_SET_NO":"999","GP_ID":"196788650","MEAN_ELEMENT_THEORY":"SGP4","LAUNCH_DATE":"2021-12-18","INCLINATION":"53.2156","FILE":"3317219","MEAN_MOTION_DDOT":"0.0000000000000","TLE_LINE1":"1 50194U 21125AQ  22054.91667824  .00046616  00000-0  33515-3 0  9999","MEAN_MOTION_DOT":"0.00046616","EPOCH":"2022-02-23T22:00:00.999936","RCS_SIZE":"LARGE","SITE":"AFWTR","APOAPSIS":"352.007","TLE_LINE2":"2 50194  53.2156  32.0524 0003194   7.9330 116.3684 15.73165811  3716","MEAN_MOTION":"15.73165811","RA_OF_ASC_NODE":"32.0524","REV_AT_EPOCH":"371","ARG_OF_PERICENTER":"7.9330","CLASSIFICATION_TYPE":"U","PERIAPSIS":"347.709","BSTAR":"0.00033515000000","SEMIMAJOR_AXIS":"6727.993","PERIOD":"91.535"},{"REF_FRAME":"TEME","CENTER_NAME":"EARTH","MEAN_ANOMALY":"101.3267","COUNTRY_CODE":"US","OBJECT_TYPE":"PAYLOAD","EPHEMERIS_TYPE":"0","DECAY_DATE":null,"NORAD_CAT_ID":"50195","OBJECT_NAME":"STARLINK-3266","ECCENTRICITY":"0.00033490","OBJECT_ID":"2021-125AR","TIME_SYSTEM":"UTC","FILE":"3317219","INCLINATION":"53.2164","LAUNCH_DATE":"2021-12-18","MEAN_ELEMENT_THEORY":"SGP4","ELEMENT_SET_NO":"999","GP_ID":"196787398","MEAN_MOTION_DOT":"0.00706233","EPOCH":"2022-02-23T22:00:00.999936","TLE_LINE1":"1 50195U 21125AR  22054.91667824  .00706233  00000-0  47136-2 0  9991","MEAN_MOTION_DDOT":"0.0000000000000","RA_OF_ASC_NODE":"32.0442","MEAN_MOTION":"15.72760963","TLE_LINE2":"2 50195  53.2164  32.0442 0003349  20.1686 101.3267 15.72760963  3717","APOAPSIS":"353.266","SITE":"AFWTR","RCS_SIZE":"LARGE","PERIAPSIS":"348.759","ARG_OF_PERICENTER":"20.1686","CLASSIFICATION_TYPE":"U","REV_AT_EPOCH":"371","PERIOD":"91.559","SEMIMAJOR_AXIS":"6729.147","BSTAR":"0.00471360000000"},{"ECCENTRICITY":"0.00034550","TIME_SYSTEM":"UTC","OBJECT_ID":"2021-125AS","ELEMENT_SET_NO":"999","GP_ID":"196787648","MEAN_ELEMENT_THEORY":"SGP4","INCLINATION":"53.2167","FILE":"3317219","LAUNCH_DATE":"2021-12-18","MEAN_ANOMALY":"115.2215","REF_FRAME":"TEME","CENTER_NAME":"EARTH","NORAD_CAT_ID":"50196","OBJECT_NAME":"STARLINK-3263","COUNTRY_CODE":"US","OBJECT_TYPE":"PAYLOAD","EPHEMERIS_TYPE":"0","DECAY_DATE":null,"CLASSIFICATION_TYPE":"U","ARG_OF_PERICENTER":"10.9963","REV_AT_EPOCH":"371","PERIAPSIS":"348.871","PERIOD":"91.562","BSTAR":"0.00537590000000","SEMIMAJOR_AXIS":"6729.331","TLE_LINE1":"1 50196U 21125AS  22054.91667824  .00813904  00000-0  53759-2 0  9994","MEAN_MOTION_DDOT":"0.0000000000000","MEAN_MOTION_DOT":"0.00813904","EPOCH":"2022-02-23T22:00:00.999936","APOAPSIS":"353.521","TLE_LINE2":"2 50196  53.2167  32.0337 0003455  10.9963 115.2215 15.72696679  3716","RCS_SIZE":"LARGE","SITE":"AFWTR","RA_OF_ASC_NODE":"32.0337","MEAN_MOTION":"15.72696679"},{"TLE_LINE2":"2 50197  53.2147  32.0547 0002996   7.8929 117.3221 15.73161261  3719","APOAPSIS":"351.886","SITE":"AFWTR","RCS_SIZE":"MEDIUM","RA_OF_ASC_NODE":"32.0547","MEAN_MOTION":"15.73161261","TLE_LINE1":"1 50197U 21125AT  22054.91667824  .00051360  00000-0  36868-3 0  9998","MEAN_MOTION_DDOT":"0.0000000000000","EPOCH":"2022-02-23T22:00:00.999936","MEAN_MOTION_DOT":"0.00051360","PERIOD":"91.535","SEMIMAJOR_AXIS":"6728.006","BSTAR":"0.00036868000000","CLASSIFICATION_TYPE":"U","ARG_OF_PERICENTER":"7.8929","REV_AT_EPOCH":"371","PERIAPSIS":"347.855","NORAD_CAT_ID":"50197","OBJECT_NAME":"STARLINK-3267","OBJECT_TYPE":"PAYLOAD","COUNTRY_CODE":"US","EPHEMERIS_TYPE":"0","DECAY_DATE":null,"MEAN_ANOMALY":"117.3221","REF_FRAME":"TEME","CENTER_NAME":"EARTH","MEAN_ELEMENT_THEORY":"SGP4","ELEMENT_SET_NO":"999","GP_ID":"196788400","FILE":"3317219","INCLINATION":"53.2147","LAUNCH_DATE":"2021-12-18","ECCENTRICITY":"0.00029960","OBJECT_ID":"2021-125AT","TIME_SYSTEM":"UTC"},{"OBJECT_ID":"2021-125AU","TIME_SYSTEM":"UTC","ECCENTRICITY":"0.00031110","MEAN_ELEMENT_THEORY":"SGP4","GP_ID":"196788150","ELEMENT_SET_NO":"999","LAUNCH_DATE":"2021-12-18","FILE":"3317219","INCLINATION":"53.2165","MEAN_ANOMALY":"117.6999","CENTER_NAME":"EARTH","REF_FRAME":"TEME","OBJECT_NAME":"STARLINK-3264","NORAD_CAT_ID":"50198","DECAY_DATE":null,"COUNTRY_CODE":"US","OBJECT_TYPE":"PAYLOAD","EPHEMERIS_TYPE":"0","REV_AT_EPOCH":"371","CLASSIFICATION_TYPE":"U","ARG_OF_PERICENTER":"11.3747","PERIAPSIS":"349.200","SEMIMAJOR_AXIS":"6729.428","BSTAR":"0.00541110000000","PERIOD":"91.564","MEAN_MOTION_DDOT":"0.0000000000000","TLE_LINE1":"1 50198U 21125AU  22054.91667824  .00818532  00000-0  54111-2 0  9991","MEAN_MOTION_DOT":"0.00818532","EPOCH":"2022-02-23T22:00:00.999936","SITE":"AFWTR","RCS_SIZE":"LARGE","TLE_LINE2":"2 50198  53.2165  32.0283 0003111  11.3747 117.6999 15.72662360  3715","APOAPSIS":"353.387","MEAN_MOTION":"15.72662360","RA_OF_ASC_NODE":"32.0283"},{"REV_AT_EPOCH":"371","ARG_OF_PERICENTER":"10.2104","CLASSIFICATION_TYPE":"U","PERIAPSIS":"348.579","SEMIMAJOR_AXIS":"6729.287","BSTAR":"0.00523470000000","PERIOD":"91.562","MEAN_MOTION_DDOT":"0.0000000000000","TLE_LINE1":"1 50199U 21125AV  22054.91667824  .00790793  00000-0  52347-2 0  9999","MEAN_MOTION_DOT":"0.00790793","EPOCH":"2022-02-23T22:00:00.999936","SITE":"AFWTR","RCS_SIZE":"LARGE","TLE_LINE2":"2 50199  53.2165  32.0076 0003823  10.2104 128.1749 15.72712018  3717","APOAPSIS":"353.724","MEAN_MOTION":"15.72712018","RA_OF_ASC_NODE":"32.0076","OBJECT_ID":"2021-125AV","TIME_SYSTEM":"UTC","ECCENTRICITY":"0.00038230","MEAN_ELEMENT_THEORY":"SGP4","GP_ID":"196786898","ELEMENT_SET_NO":"999","LAUNCH_DATE":"2021-12-18","FILE":"3317219","INCLINATION":"53.2165","MEAN_ANOMALY":"128.1749","CENTER_NAME":"EARTH","REF_FRAME":"TEME","OBJECT_NAME":"STARLINK-3270","NORAD_CAT_ID":"50199","DECAY_DATE":null,"COUNTRY_CODE":"US","EPHEMERIS_TYPE":"0","OBJECT_TYPE":"PAYLOAD"},{"PERIOD":"91.557","BSTAR":"0.00444640000000","SEMIMAJOR_AXIS":"6729.078","PERIAPSIS":"348.807","CLASSIFICATION_TYPE":"U","ARG_OF_PERICENTER":"20.6310","REV_AT_EPOCH":"371","RA_OF_ASC_NODE":"32.0321","MEAN_MOTION":"15.72785247","APOAPSIS":"353.079","TLE_LINE2":"2 50200  53.2164  32.0321 0003174  20.6310 106.4720 15.72785247  3717","RCS_SIZE":"LARGE","SITE":"AFWTR","EPOCH":"2022-02-23T22:00:00.999936","MEAN_MOTION_DOT":"0.00663402","TLE_LINE1":"1 50200U 21125AW  22054.91667824  .00663402  00000-0  44464-2 0  9999","MEAN_MOTION_DDOT":"0.0000000000000","INCLINATION":"53.2164","FILE":"3317219","LAUNCH_DATE":"2021-12-18","ELEMENT_SET_NO":"999","GP_ID":"196787148","MEAN_ELEMENT_THEORY":"SGP4","ECCENTRICITY":"0.00031740","TIME_SYSTEM":"UTC","OBJECT_ID":"2021-125AW","COUNTRY_CODE":"US","OBJECT_TYPE":"PAYLOAD","EPHEMERIS_TYPE":"0","DECAY_DATE":null,"NORAD_CAT_ID":"50200","OBJECT_NAME":"STARLINK-3235","REF_FRAME":"TEME","CENTER_NAME":"EARTH","MEAN_ANOMALY":"106.4720"},{"PERIOD":"91.566","BSTAR":"0.00573320000000","SEMIMAJOR_AXIS":"6729.519","CLASSIFICATION_TYPE":"U","ARG_OF_PERICENTER":"6.3430","REV_AT_EPOCH":"371","PERIAPSIS":"348.951","APOAPSIS":"353.816","TLE_LINE2":"2 50201  53.2166  32.0249 0003615   6.3430 124.6241 15.72630752  3713","RCS_SIZE":"LARGE","SITE":"AFWTR","RA_OF_ASC_NODE":"32.0249","MEAN_MOTION":"15.72630752","TLE_LINE1":"1 50201U 21125AX  22054.91667824  .00871692  00000-0  57332-2 0  9990","MEAN_MOTION_DDOT":"0.0000000000000","MEAN_MOTION_DOT":"0.00871692","EPOCH":"2022-02-23T22:00:00.999936","ELEMENT_SET_NO":"999","GP_ID":"196787900","MEAN_ELEMENT_THEORY":"SGP4","INCLINATION":"53.2166","FILE":"3317219","LAUNCH_DATE":"2021-12-18","ECCENTRICITY":"0.00036150","TIME_SYSTEM":"UTC","OBJECT_ID":"2021-125AX","NORAD_CAT_ID":"50201","OBJECT_NAME":"STARLINK-3255","COUNTRY_CODE":"US","OBJECT_TYPE":"PAYLOAD","EPHEMERIS_TYPE":"0","DECAY_DATE":null,"MEAN_ANOMALY":"124.6241","REF_FRAME":"TEME","CENTER_NAME":"EARTH"},{"OBJECT_NAME":"STARLINK-3256","NORAD_CAT_ID":"50202","DECAY_DATE":null,"COUNTRY_CODE":"US","OBJECT_TYPE":"PAYLOAD","EPHEMERIS_TYPE":"0","MEAN_ANOMALY":"82.5231","CENTER_NAME":"EARTH","REF_FRAME":"TEME","MEAN_ELEMENT_THEORY":"SGP4","ELEMENT_SET_NO":"999","GP_ID":"196788651","LAUNCH_DATE":"2021-12-18","FILE":"3317219","INCLINATION":"53.2166","OBJECT_ID":"2021-125AY","TIME_SYSTEM":"UTC","ECCENTRICITY":"0.00038110","SITE":"AFWTR","RCS_SIZE":"LARGE","TLE_LINE2":"2 50202  53.2166  30.6300 0003811   7.1684  82.5231 15.72581011  3718","APOAPSIS":"354.090","MEAN_MOTION":"15.72581011","RA_OF_ASC_NODE":"30.6300","MEAN_MOTION_DDOT":"0.0000000000000","TLE_LINE1":"1 50202U 21125AY  22054.91667824  .00990919  00000-0  65546-2 0  9991","MEAN_MOTION_DOT":"0.00990919","EPOCH":"2022-02-23T22:00:00.999936","SEMIMAJOR_AXIS":"6729.661","BSTAR":"0.00655460000000","PERIOD":"91.569","REV_AT_EPOCH":"371","ARG_OF_PERICENTER":"7.1684","CLASSIFICATION_TYPE":"U","PERIAPSIS":"348.961"},{"CLASSIFICATION_TYPE":"U","ARG_OF_PERICENTER":"9.1931","REV_AT_EPOCH":"371","PERIAPSIS":"347.752","PERIOD":"91.535","BSTAR":"0.00049033000000","SEMIMAJOR_AXIS":"6727.992","TLE_LINE1":"1 50203U 21125AZ  22054.91667824  .00068669  00000-0  49033-3 0  9994","MEAN_MOTION_DDOT":"0.0000000000000","EPOCH":"2022-02-23T22:00:00.999936","MEAN_MOTION_DOT":"0.00068669","APOAPSIS":"351.963","TLE_LINE2":"2 50203  53.2163  32.0495 0003129   9.1931 118.8265 15.73165918  3711","RCS_SIZE":"LARGE","SITE":"AFWTR","RA_OF_ASC_NODE":"32.0495","MEAN_MOTION":"15.73165918","ECCENTRICITY":"0.00031290","TIME_SYSTEM":"UTC","OBJECT_ID":"2021-125AZ","GP_ID":"196787399","ELEMENT_SET_NO":"999","MEAN_ELEMENT_THEORY":"SGP4","INCLINATION":"53.2163","FILE":"3317219","LAUNCH_DATE":"2021-12-18","MEAN_ANOMALY":"118.8265","REF_FRAME":"TEME","CENTER_NAME":"EARTH","NORAD_CAT_ID":"50203","OBJECT_NAME":"STARLINK-3257","COUNTRY_CODE":"US","OBJECT_TYPE":"PAYLOAD","EPHEMERIS_TYPE":"0","DECAY_DATE":null}];
